{"type":"FeatureCollection", "features": [
{"type":"Feature","geometry":{"type":"Polygon","coordinates":[[[17.71785462087982,58.81529490351937],[17.72034055635657,58.8094271303147],[17.725946173359954,58.797703451860244],[17.766948008061576,58.78433448565555],[17.79413733353877,58.67096523622943],[18.001706551785613,58.71683632924552],[18.09548255434343,58.77956191531941],[18.14019485574938,58.80426161109598],[18.554079197853074,58.933536378192414],[18.679223539481338,58.997977731774434],[18.86930330126652,59.118190980953564],[18.908697529230345,59.1944697074659],[19.19390304525947,59.30519126647906],[19.356696569402448,59.47988152545035],[19.55157647296015,59.50998897375446],[19.66097364502719,59.57959214996403],[19.68235357499808,59.64291798471856],[19.529625375527406,59.64538461340414],[19.42807741682138,59.68099405541642],[19.478211973568165,59.735939909068755],[19.366872161904073,59.79088938719556],[19.203335977602844,59.820611961381715],[19.15466467932351,59.87570089555837],[18.970831900584333,59.933741149808384],[18.88212915795134,60.031246542677636],[18.830521280037292,60.148417666512174],[18.92943413659353,60.216855195877095],[18.90585276088531,60.27803615031125],[18.683608025813246,60.23932938773571],[18.6767996018696,60.155090184186086],[18.51421345485334,60.16067053628869],[18.492087758920956,60.10395095987528],[18.388522973602576,60.04124030709561],[18.467915681108476,60.007182061215076],[18.37728382585347,59.936356689918014],[18.36473930178823,59.864513327910835],[18.152965197913925,59.822510377974645],[18.085167038555863,59.73855669200112],[17.722372871118097,59.68380807564004],[17.62953593208904,59.69421181339935],[17.590452930977488,59.6497562020998],[17.513564167729776,59.6115510273191],[17.57403129620833,59.56144193419802],[17.464817350620244,59.50739744381054],[17.50434947321921,59.44053926315075],[17.415095113783682,59.383465254897125],[17.42561071501634,59.35134498838905],[17.33504599777761,59.351740890883356],[17.341561047882976,59.27359919498386],[17.274815676095653,59.24555396027634],[17.27696719240737,59.169569018855185],[17.307639924882533,59.152383914486585],[17.316782976376217,59.14489364834375],[17.316767920660713,59.144898326753484],[17.323651178385237,59.046230893095206],[17.370733829309074,58.99107778626447],[17.375159035880227,58.98238450605316],[17.375170206816406,58.9823625608452],[17.532194530654547,58.98208469336772],[17.54959555257177,58.962757969967434],[17.557743497693107,58.95852309924365],[17.569648044546447,58.952411794869725],[17.61981758259953,58.936794183712614],[17.654630091268515,58.893325413163495],[17.66069010344361,58.86654330879652],[17.65792084397287,58.864397006676946],[17.653657040762077,58.857060414762195],[17.71785462087982,58.81529490351937]],[[18.177187170681023,59.23242651177156],[18.109279953988704,59.22704553226033],[17.86349127788256,59.27454325664546],[17.9412540004373,59.31762940020019],[17.76069060095718,59.391767186246334],[17.89118380633992,59.42541585465364],[17.97267238508889,59.40044791488697],[17.96579541118469,59.35520224573686],[18.05874142625305,59.37549666427366],[18.09556509620563,59.3696905695756],[18.163934261959835,59.325327518330816],[18.200077544069796,59.24747266544313],[18.177187170681023,59.23242651177156]]]},"properties":{"valkrets":"Stockholms län"}},
{"type":"Feature","geometry":{"type":"Polygon","coordinates":[[[18.90585276088531,60.27803615031125],[18.874532064299625,60.310675018370496],[18.68602928327912,60.297275536911094],[18.649627320516,60.44789343129332],[18.39935027949415,60.54065519400112],[18.25224699034568,60.436982760881556],[18.177597093375777,60.448172710163384],[18.020767129963648,60.64339871389186],[17.70687613462934,60.60358305303742],[17.556592763161888,60.66757582451568],[17.37813853094762,60.6630005985669],[17.287808152892058,60.446772066947],[17.195527904838112,60.4104824692245],[17.193815814023903,60.30081207098145],[17.058470710785194,60.27296594239247],[16.908877833231312,60.281497908258714],[16.904900163804562,60.239488401656516],[16.704790577578322,60.195096410207796],[16.716176530686724,60.01085781190566],[16.794334849682254,59.94587319522564],[16.79900888441317,59.881501642426485],[16.799012501259096,59.88150057575731],[16.80055742370399,59.87307992225431],[16.810153413376916,59.81944429858472],[16.728958496510423,59.7767628008779],[16.85480955826111,59.66660304201217],[16.965907704287872,59.52035201287262],[17.08388276549941,59.53070877678044],[17.20781948406081,59.46260151307613],[17.353914616909954,59.43778195780329],[17.415095113783682,59.383465254897125],[17.50434947321921,59.44053926315075],[17.464817350620244,59.50739744381054],[17.57403129620833,59.56144193419802],[17.513564167729776,59.6115510273191],[17.590452930977488,59.6497562020998],[17.62953593208904,59.69421181339935],[17.722372871118097,59.68380807564004],[18.085167038555863,59.73855669200112],[18.152965197913925,59.822510377974645],[18.36473930178823,59.864513327910835],[18.37728382585347,59.936356689918014],[18.467915681108476,60.007182061215076],[18.388522973602576,60.04124030709561],[18.492087758920956,60.10395095987528],[18.51421345485334,60.16067053628869],[18.6767996018696,60.155090184186086],[18.683608025813246,60.23932938773571],[18.90585276088531,60.27803615031125]]]},"properties":{"valkrets":"Uppsala län"}},
{"type":"Feature","geometry":{"type":"Polygon","coordinates":[[[17.323651178385237,59.046230893095206],[17.316767920660713,59.144898326753484],[17.316782976376217,59.14489364834375],[17.307639924882533,59.152383914486585],[17.27696719240737,59.169569018855185],[17.274815676095653,59.24555396027634],[17.341561047882976,59.27359919498386],[17.33504599777761,59.351740890883356],[17.42561071501634,59.35134498838905],[17.415095113783682,59.383465254897125],[17.353914616909954,59.43778195780329],[17.20781948406081,59.46260151307613],[17.08388276549941,59.53070877678044],[16.965907704287872,59.52035201287262],[16.90628290853119,59.47957554132364],[16.702413326094206,59.48772100204659],[16.26312382269248,59.45238828873427],[16.24880882951376,59.44020763818142],[16.266484733275487,59.36195201357715],[16.156657428650412,59.346451203234146],[15.9964443415585,59.359541098614066],[15.864693652157904,59.284039074159914],[15.892737994887993,59.23048348606218],[15.762037679464507,59.197919167307845],[15.769089346552262,59.18372310267901],[15.783655442712503,59.106234947247835],[15.701174239545782,59.095040816150245],[15.617349460655134,59.0232740894403],[15.687632734689,58.98196845440531],[15.820751693528258,59.018430982811985],[15.967410163645962,58.94715438682477],[16.08129323973079,58.917414226877504],[16.18232062559114,58.853868428504256],[16.263610735658716,58.83223309467676],[16.269064644403812,58.825565566421176],[16.271809052550907,58.82220748792251],[16.368671691478337,58.75302734968896],[16.385802884451614,58.70359268646433],[16.58449867116967,58.697829245281646],[16.68977875069823,58.675619794018175],[16.827377907936057,58.59426811026286],[17.06982890915108,58.59066138028076],[17.08672890901592,58.63467025706812],[17.167293255246673,58.639762385942284],[17.22818676714234,58.69461665171417],[17.336107999180545,58.66237794197919],[17.618614661113522,58.67292638929804],[17.79413733353877,58.67096523622943],[17.766948008061576,58.78433448565555],[17.725946173359954,58.797703451860244],[17.72034055635657,58.8094271303147],[17.653657040762077,58.857060414762195],[17.65792084397287,58.864397006676946],[17.66069010344361,58.86654330879652],[17.654630091268515,58.893325413163495],[17.61981758259953,58.936794183712614],[17.569648044546447,58.952411794869725],[17.557743497693107,58.95852309924365],[17.54959555257177,58.962757969967434],[17.532194530654547,58.98208469336772],[17.375170206816406,58.9823625608452],[17.375159035880227,58.98238450605316],[17.375159031269547,58.982384504642354],[17.370733829309074,58.99107778626447],[17.323651178385237,59.046230893095206]]]},"properties":{"valkrets":"Södermanlands län"}},
{"type":"Feature","geometry":{"type":"Polygon","coordinates":[[[15.529083006344596,57.19158471929355],[15.729890864408423,57.0614407279448],[15.82870543579165,56.99209983483269],[15.799928237871361,56.91493306674235],[15.519286934953804,56.90069465263784],[15.52865986248806,56.900406908930215],[15.552579123662186,56.838390203227945],[15.522570740584706,56.80283658518025],[15.36083934011443,56.75796736840722],[15.420655452511644,56.701252009911244],[15.367139926394334,56.60229720870792],[15.364680912339301,56.482137990281494],[15.480603370054492,56.47997555555476],[15.50486763352576,56.4741188628807],[15.510676486424902,56.4759692457968],[15.511861947287994,56.47656703545749],[15.512835345268268,56.48788255988192],[15.515803618259572,56.49491929006228],[15.516730771307952,56.495352687867964],[15.517676343413422,56.496725702878805],[15.550425712416489,56.5020773764706],[15.552910485653658,56.501015977657325],[15.5601257804505,56.499926095235104],[15.5714915909921,56.496683105323015],[15.575966358219727,56.49481101476233],[15.585814448447795,56.49518871260619],[15.585522289713486,56.4941487573424],[15.585391488558729,56.49384863201139],[15.585661816411069,56.49306228373441],[15.58602386551115,56.492710640362006],[15.586360276749856,56.49238341532892],[15.58724686692886,56.49152041318746],[15.587551719104805,56.49122367170881],[15.588406039441809,56.491117234186454],[15.587154685336584,56.48905905986195],[15.586885188042546,56.48763980553844],[15.605899534857526,56.470696425384276],[15.62075614366275,56.465634770486396],[15.624315560597491,56.46415898875198],[15.630180146433077,56.462037673664824],[15.630763534998675,56.46161804747058],[15.65418579488754,56.46340646315601],[15.654659771999787,56.46259653652884],[15.658409198263472,56.46032475213558],[15.662849663144412,56.452289968479754],[15.665136765958048,56.45061328942919],[15.666096940624064,56.44790249281518],[15.668646898973714,56.441469125824604],[15.687373921205513,56.42403720312888],[15.69203990264149,56.42360625699611],[15.700971843307606,56.422190128901995],[15.701710574474838,56.42201662476118],[15.706605834556203,56.42043934735256],[15.70668351133449,56.42041431950409],[15.714483846595781,56.418603970113246],[15.721977735027078,56.41729919969883],[15.736146635010089,56.414163948118095],[15.74037833305826,56.40946635249891],[15.74327105228452,56.40789376164247],[15.7448412526823,56.403655055061655],[15.74575662872214,56.40300370829105],[15.745933829980789,56.40210382960307],[15.746400890369609,56.40170325868891],[15.746687411061016,56.40154465575774],[15.74695952368565,56.40139402838187],[15.74728327187571,56.4011712789248],[15.749444377370837,56.4008098400023],[15.74969840574857,56.40058151547357],[15.7500177054422,56.40025933443558],[15.752415367869931,56.398024875598686],[15.758000430739022,56.38941207581482],[15.75847872711915,56.38915976913995],[15.761813598850047,56.38674299042386],[15.76183003146991,56.38643746097522],[15.762502784824253,56.38518981726635],[15.763183994670545,56.38464634629749],[15.76549142497136,56.3834344820548],[15.76567337883419,56.38334250776762],[15.772521594575728,56.381255659985875],[15.773059830984101,56.38099418821021],[15.774248362007633,56.38021124992323],[15.77480944688634,56.38018836036727],[15.775599015809584,56.37974537732436],[15.776064422284453,56.37803679809952],[15.775995530770663,56.37777125885975],[15.776770517563747,56.37487605643086],[15.777337096892682,56.374050139102295],[15.778113998293424,56.37261609016079],[15.777001820265925,56.370120881375854],[15.872219328601778,56.31771178142437],[15.872249118377582,56.31770393321054],[15.873196348852321,56.31758996542489],[15.873561139224092,56.31793089608642],[15.877358842029972,56.31729873049386],[15.877520526440492,56.317309379872285],[15.899073109903231,56.31651549964531],[15.9012072831058,56.3162523713852],[15.939293667110862,56.31594576307793],[15.93941902646443,56.315940349415],[15.940071243943644,56.31609756831716],[15.940158066793536,56.316154382409835],[15.94051271352438,56.31650790765101],[15.947689112229405,56.31683027856459],[15.956837690366186,56.316208445990256],[15.95598380596704,56.314749223178545],[15.955983082574912,56.31474171269682],[15.955980862092952,56.31453136108042],[15.966893461176534,56.31261502005246],[15.96694773781968,56.31269480228057],[15.969589001919683,56.31406197240597],[15.969785712855153,56.3140473287962],[15.970348826689623,56.31388575140158],[15.970542708648779,56.31340697858564],[15.974639006580526,56.30905243844053],[15.972774457265222,56.306768598281906],[15.973258614839416,56.306332316039025],[15.973258174554752,56.306321762709565],[15.973187097247571,56.30583829896143],[15.97305535425103,56.305387593630215],[15.973130523294632,56.30529148828294],[15.97319399199266,56.30521899958601],[15.975240313055941,56.305243711794134],[15.975273012504402,56.30523998563419],[15.980023268793339,56.30410386261803],[16.022395227716007,56.31508162244863],[16.06667368222401,56.3215068224347],[16.104166930324634,56.31856721068526],[16.162714586069395,56.451053882729184],[16.24077487907475,56.58359131733055],[16.390247506567743,56.68276266333769],[16.421327385425652,56.75939148770773],[16.486929433134335,56.762948966399996],[16.509572058779867,56.88224865864582],[16.556374577163673,56.87667801398724],[16.50392570097071,56.76409895875769],[16.464221284375178,56.665201571262294],[16.38433918034271,56.61222549305146],[16.35794262808004,56.477523836041556],[16.392777933299634,56.34777073951419],[16.380693160109278,56.26728437209198],[16.489111583455546,56.23257039005408],[16.587114516287937,56.37535768611397],[16.662418564342865,56.53563529637643],[16.74592018452731,56.65703916086461],[16.805522064391006,56.773850779355875],[16.861100626590463,56.80393605923765],[16.93379697460112,56.97660217965043],[17.09289205651297,57.17104052409046],[17.101439352378527,57.28390145493477],[17.178866466148186,57.30988212792447],[17.13981126188537,57.377164079889425],[17.036696283905208,57.368395102562516],[16.948426793770434,57.28956226454685],[16.948553735176084,57.220140064047264],[16.832881240076315,57.05185808221757],[16.69622023034012,56.897347293947284],[16.557769256290467,56.87816423446908],[16.704998421489996,57.0211783603368],[16.763890782644307,57.166221055405636],[16.579267006346605,57.150881256619],[16.51261648826527,57.18221773017189],[16.48932340294913,57.27477137242755],[16.600250317804228,57.30493982701548],[16.63298589732552,57.36015901090117],[16.789911155182164,57.45313533162508],[16.821976935400883,57.61574529969173],[16.784269405962362,57.72317704545473],[16.878957571883504,57.81383558129778],[16.896284189148957,58.003120322353844],[16.734105245270534,57.98685117360295],[16.627470479211222,58.00279328504382],[16.532510494570985,58.11619851760619],[16.397756021240486,58.12949945287413],[16.26485733718185,58.14244677051153],[16.069892536307194,58.06991899473386],[16.014523486279128,58.08556820537837],[15.995490083231719,58.021969648106925],[16.072442046201214,57.973540120326994],[16.029363720358337,57.92121220169655],[16.06244012812062,57.87333741573763],[15.964530028595583,57.82332452913113],[15.822336548215635,57.816564317955155],[15.756669494100068,57.85089817369223],[15.599085234247566,57.853659735398224],[15.54235090668144,57.79017424819821],[15.421464494864933,57.70472902863983],[15.665674249178675,57.59928708698422],[15.576550729310847,57.54795385760277],[15.57681340331537,57.547680473500456],[15.630024702770863,57.53022394377786],[15.609175113751578,57.43936475019149],[15.498255531413816,57.43531006681885],[15.51180232395585,57.3196833245402],[15.463042923349542,57.26538632720483],[15.514831038452723,57.20222466471809],[15.529083006344596,57.19158471929355]]]},"properties":{"valkrets":"Kalmar län"}},
{"type":"Feature","geometry":{"type":"Polygon","coordinates":[[[13.282132162666079,57.30745177759807],[13.468423452012457,57.37127205157334],[13.604525881463134,57.50745678325124],[13.688571408852907,57.5582867494044],[13.664240663909643,57.615046809692345],[13.724238958575068,57.67420441481752],[13.723478882162828,57.68184743117711],[13.722499667632,57.691694010492256],[13.731661431736413,57.84544110910029],[13.729048103604937,57.93126823400574],[13.64887437318983,57.92836625077781],[13.559404150332606,58.00666115597722],[13.448782341233326,57.958394252644645],[13.356948361855016,57.98182323327438],[13.259046649321967,58.09283530639176],[13.189379209255009,58.12923738325205],[12.934739088578821,58.11245581191454],[12.903329814095759,58.11166660208948],[12.710974694642386,58.09676092799065],[12.580538016307276,58.04724151843705],[12.539315298117879,57.99847088593609],[12.648371070286156,57.95028913653796],[12.660100402217273,57.85639990859951],[12.576216373640756,57.7914637777149],[12.4844064198949,57.77644955110235],[12.427556547100844,57.73130111339282],[12.479868861337845,57.71521282295086],[12.562171645761344,57.619840742185865],[12.273324807812978,57.605828140396355],[12.2772035952251,57.597454379901556],[12.340954655343289,57.56172404500022],[12.323965698787,57.4631274111626],[12.402282284504068,57.43624155672355],[12.386982101468497,57.35152922672683],[12.430221817859792,57.269355964501194],[12.504577165993775,57.281053870307396],[12.609217193390055,57.34666778003094],[12.762805430978286,57.27341079400674],[12.807536430000876,57.301109121674976],[12.906916512398809,57.27001229535241],[12.914430746728836,57.219832214614755],[13.02091276822873,57.15748522272432],[13.100284178867316,57.14556470644536],[13.282132162666079,57.30745177759807]]]},"properties":{"valkrets":"Västra Götalands läns södra"}},
{"type":"Feature","geometry":{"type":"Polygon","coordinates":[[[15.125464734996903,60.00841956999081],[15.228427987461057,59.976132792467254],[15.42223846699992,59.85414539349269],[15.531232382199768,59.957161919561926],[15.681751058582703,59.93792237120732],[15.730885477933029,60.0230065245485],[15.72525260079284,60.09922420399994],[15.801416225264964,60.17747512350994],[16.016906890138355,60.181449165713325],[16.13235138257105,60.13856923475366],[16.184128590416616,60.076001936378134],[16.38720130276213,60.08140562751261],[16.527031478525863,60.16461812906757],[16.704790577578322,60.195096410207796],[16.516600263039564,60.35549524630953],[16.392682120312116,60.37936188979612],[16.194822158298443,60.53531075409674],[16.136487793140567,60.61030935967288],[16.197644420842845,60.61404736599898],[16.379664546486936,60.74850278205368],[16.38615442511931,60.786793558518426],[16.25219543456257,60.86690320214804],[16.131006333398762,60.99214473057012],[15.92135186839721,61.00766198120591],[15.761960663881878,61.04963615705105],[15.680321307800448,61.113271448663376],[15.6573517443766,61.215617936201234],[15.44012775997836,61.33316376237771],[15.216270011589526,61.4946545005348],[15.093219610974035,61.48411848614671],[14.90091339667782,61.49654110234436],[14.673685222161742,61.48900687782428],[14.676598311022754,61.59132256836757],[14.446646175099128,61.59468380711631],[14.394581261203504,61.563907993942486],[14.336127964677846,61.59936882960011],[13.976792036615775,61.62140119713759],[13.59837602790713,61.65633080889893],[13.51154453419587,61.70975676872568],[13.383156687527169,61.83397246031081],[13.200315677201205,61.92909836113572],[13.391925529599877,62.00081259309836],[13.158677991737685,62.019661076497876],[12.90263819977283,62.14185111365175],[12.80596833844953,62.22052552200408],[12.607814691381112,62.214781921221466],[12.29940919104123,62.267497655142755],[12.13771827049462,61.723764081457404],[12.41967540451266,61.56298914032825],[12.569095610514973,61.56881353351671],[12.87086200415146,61.35648649939904],[12.790354421340089,61.19704273173991],[12.707022551746112,61.14327468615833],[12.670226622882343,61.05600100260123],[12.698696976861932,60.99812161381906],[13.08149861817655,60.80590879706595],[13.197323027146025,60.6985328778795],[13.423590592037645,60.521063519749],[13.471138567929803,60.45791050276455],[13.621691766595527,60.414389776316526],[13.670832549513793,60.403359199376425],[13.82800602936796,60.25474188969718],[13.965522393693972,60.17520496232047],[13.951066828482903,60.25100131143375],[14.149195680151546,60.2306613484483],[14.212702234933037,60.0957403351238],[14.437039713751942,60.02571777922738],[14.753656721554215,59.99717567643903],[14.737342297730468,60.08174688132398],[14.807659626148522,60.1109343253324],[14.904783986295636,60.05134208734128],[15.013429876415605,60.05739003422073],[15.125464734996903,60.00841956999081]]]},"properties":{"valkrets":"Dalarnas län"}},
{"type":"Feature","geometry":{"type":"Polygon","coordinates":[[[14.500645091838305,65.44420996874734],[14.506771687347506,65.30973093861685],[14.378726953017296,65.24762519396747],[14.325899412449635,65.11891672494014],[14.613031465164418,65.00236411400019],[14.705107343154037,64.9813498456205],[14.8639484582076,64.86863691925552],[14.973933242373338,64.84614202606642],[15.031346207233627,64.76150880781037],[15.224746550520557,64.72274068009749],[15.334449886609171,64.66903881727606],[15.301182866281222,64.62502573985923],[15.520761938047908,64.53215002731032],[15.704370211928063,64.5380027116422],[15.74016504433733,64.40410746651217],[16.02235123678528,64.33280250857374],[16.04254657673325,64.24888395916803],[16.219191477309785,64.26394745319224],[16.71871850213541,64.02747577375543],[16.878297351056343,63.95067791189109],[17.261488292689293,63.91376387909784],[17.733435926053957,63.88009757013609],[18.406480535444135,63.995788899258336],[18.473686173001454,63.96479020990874],[18.43983587860054,63.89301657440026],[18.485499704348506,63.842645612552666],[18.75729668110422,63.81043203250839],[18.807227170892215,63.78850009354853],[18.961870992550043,63.7604733442264],[19.18183782404871,63.59842999538097],[19.31444911670823,63.43291423666144],[19.465488901667044,63.393869340378004],[19.60837908590711,63.390613743475015],[19.80792114827287,63.4569098378632],[19.814212851900074,63.48644538217344],[19.91791514883554,63.46490230956934],[20.022067895081552,63.574091724921395],[20.171180049587097,63.62757151952152],[20.370059414346905,63.63125751739821],[20.494822497888304,63.707085057154586],[20.71617033114643,63.74223860486731],[20.732370079260992,63.585630521804326],[20.80533248499374,63.58278829567215],[20.96040777225047,63.699559121397364],[21.03388479509125,63.82175882939489],[20.81169712053516,63.845840936902526],[20.93985710987648,63.989623081336106],[20.96654288578684,64.07105831732487],[21.05491991627736,64.17287253975702],[21.145257553094833,64.1877928158245],[21.28000523918204,64.26899164931395],[21.401795794353966,64.30088703033339],[21.623345905040672,64.43489418046653],[21.629863789039547,64.46481493645837],[21.507594370105434,64.60113839317587],[21.348396651163778,64.63791797453642],[21.27933707472488,64.8030930672206],[21.377043150619006,64.92324785062057],[21.57200187437316,65.05325686306365],[21.26605323765371,65.16340518948606],[20.805537986546398,65.20927863452233],[19.894824980131343,65.38095035199599],[19.590406362232592,65.1942603962753],[19.39035469391234,65.14281727954067],[19.255786616040133,65.21047386047523],[19.263277256281242,65.25235140324098],[18.752558391521504,65.40394661657432],[18.711526801548462,65.43827463264124],[18.521971027682294,65.45201882584462],[18.26791193731018,65.52453324386802],[18.17796022407994,65.57653875091239],[17.66215947232738,65.66212801416162],[17.03445891263878,65.93041051836863],[16.771945982885203,66.03203262721075],[16.529191081694666,66.0535870134931],[16.232336250664943,66.14068584145623],[15.771395747966206,66.29081602297896],[15.453902031747008,66.34535213214832],[15.484717136987808,66.28246867678088],[15.035655760518184,66.15357276538194],[14.951336981559066,66.15001754352102],[14.51626534261745,66.13259507323039],[14.625432685912239,65.81182276300075],[14.541402970157172,65.70076183019046],[14.500645091838305,65.44420996874734]]]},"properties":{"valkrets":"Västerbottens län"}},
{"type":"Feature","geometry":{"type":"Polygon","coordinates":[[[16.732622730065692,67.90582193637064],[16.55628431697652,67.64717529711731],[16.40764061006455,67.53410747907031],[16.15799838046975,67.51914614158211],[16.08980683551254,67.43526745430336],[16.404073994537743,67.20496894601604],[16.402469921173278,67.1904260480411],[16.387733655996648,67.04546474902116],[16.03866773802437,66.91246437073315],[15.621335266299713,66.59434642170756],[15.377192497650988,66.48431369885849],[15.453902031747008,66.34535213214832],[15.771395747966206,66.29081602297896],[16.232336250664943,66.14068584145623],[16.529191081694666,66.0535870134931],[16.771945982885203,66.03203262721075],[17.03445891263878,65.93041051836863],[17.66215947232738,65.66212801416162],[18.17796022407994,65.57653875091239],[18.26791193731018,65.52453324386802],[18.521971027682294,65.45201882584462],[18.711526801548462,65.43827463264124],[18.752558391521504,65.40394661657432],[19.263277256281242,65.25235140324098],[19.255786616040133,65.21047386047523],[19.39035469391234,65.14281727954067],[19.590406362232592,65.1942603962753],[19.894824980131343,65.38095035199599],[20.805537986546398,65.20927863452233],[21.26605323765371,65.16340518948606],[21.57200187437316,65.05325686306365],[21.963345025615965,65.18143742619594],[22.018978046411185,65.31673885059362],[22.124423172408928,65.36781050773172],[22.338717016168346,65.38490292870188],[22.385514673652967,65.29027907636798],[22.768255527306252,65.46363785750336],[22.87650371783232,65.63687247322723],[23.089084250371517,65.62698452647066],[23.45060753018175,65.66742540923038],[23.608982897918736,65.64649537628681],[23.669356779721433,65.53477636676587],[24.15844565073107,65.60850846131122],[24.172106948956074,65.72528714429177],[24.131736144596648,65.77161059026749],[24.153141870193096,65.86258045287198],[24.043215781472128,65.96210019438821],[23.87885131643448,66.16580922895434],[23.7326102095206,66.19376929130546],[23.645781461557863,66.30151770511657],[23.689220684578085,66.38753301109507],[23.64997059654115,66.45467507154305],[23.857963782147177,66.55787221107116],[23.876559601182834,66.75349170167458],[23.995260083534234,66.82176916029991],[23.889205212426997,66.90723122608703],[23.551199784900504,67.17120337501808],[23.577564751975718,67.2690248919448],[23.730403274933433,67.2890498536264],[23.75937046551382,67.43378254729119],[23.396448011928623,67.49005068226623],[23.54424118146377,67.58249786774856],[23.492334516528505,67.66426465526084],[23.47269461582158,67.81796130388653],[23.507075654983215,67.87856732925538],[23.65220301092459,67.95931608964008],[23.397463877710877,68.04399682629496],[23.286445350161422,68.15445506074886],[23.14007195730705,68.15539780821544],[23.151629023505212,68.23422677054734],[23.070065419100704,68.30030561618284],[22.91730756992346,68.33355675332339],[22.845107449873648,68.3831837320926],[22.64354364760049,68.43139992553412],[22.46741839159193,68.4416463822302],[22.351377082401367,68.48122012107585],[22.044409475507365,68.47929998161916],[21.887128469246772,68.58491496220195],[21.42906381288874,68.6919313255428],[21.402106782230902,68.75738708814859],[21.018597686395847,68.88961334833992],[20.771498692285142,69.03301015459994],[20.548639859632733,69.05996726798995],[20.060045580892137,69.04575521543559],[20.306426311430535,68.92617101360165],[20.335871302971213,68.80231214362388],[20.20270131608344,68.6659054335327],[19.937502745664435,68.55793972770377],[20.226418111690307,68.49080516368318],[19.92139595977347,68.35601187245922],[18.983697130217703,68.51694519224775],[18.621148227757924,68.50693611298307],[18.405610957983587,68.58185326699943],[18.125851005053327,68.53649335439799],[18.101092575372867,68.4060410613777],[18.151290920204175,68.19877544055444],[17.899706950924,67.96934447630673],[17.6646823139694,68.0383603245367],[17.281484453688773,68.11879578800168],[17.180558579544755,68.05041004094446],[16.732622730065692,67.90582193637064]]]},"properties":{"valkrets":"Norrbottens län"}},
{"type":"Feature","geometry":{"type":"Polygon","coordinates":[[[11.10462943247314,58.8183384446389],[11.107343591712215,58.72887139211171],[11.184725997059918,58.573989960126376],[11.121560189553655,58.54767273176321],[11.237702069326144,58.45146767885216],[11.153950735450714,58.38702692663383],[11.18559377354335,58.33071684864915],[11.287865288071371,58.29289005011796],[11.315300180404765,58.17416408331675],[11.276444518122348,58.09324426950537],[11.379791418407445,58.04910748922659],[11.504689355386926,58.052874778178776],[11.748396228136967,58.10569358560681],[11.853305452675345,58.16024095296015],[11.983182936751845,58.14993693611123],[12.118659698893328,58.304542869670875],[12.136342274216837,58.30807024019543],[12.228630770472504,58.25655083525095],[12.157717602508436,58.2166606610644],[12.187776585611696,58.13476677020967],[12.375519820219939,58.11730802554839],[12.433724003129603,58.09522432607729],[12.539989223347392,58.197104880376344],[12.528460637605475,58.23457060328595],[12.528164295396646,58.313024742612555],[12.646126701930314,58.41337187418912],[12.717018626721746,58.495652864610896],[12.742657575764966,58.56768210884991],[12.54223919001586,58.51930699729133],[12.699606260621497,58.6559345988941],[12.591190822790136,58.68502520778346],[12.601509807531613,58.784868298851805],[12.782371416895598,59.02366467255799],[12.754549313949973,59.13084541188181],[12.634929834602659,59.18095031188038],[12.581636177426356,59.1145614396249],[12.457417292995334,59.13215560518109],[12.422416325140407,59.192608112355856],[12.260836124531775,59.19449766270881],[12.235627129596315,59.25711635511216],[12.082203898872947,59.25723730947019],[11.988114944473727,59.224471223225166],[11.835723434401725,59.23581167600563],[11.82619352372924,59.23782091294855],[11.78288734063932,59.206428574782834],[11.775243079838079,59.086442489722195],[11.710716313679793,59.03369725099068],[11.651782481835895,58.906252839175714],[11.456736271451595,58.88756153305357],[11.464688675118888,58.99105275530221],[11.339904614829363,59.11471395318744],[11.153670606249618,59.079232592641205],[11.117149252955128,59.01505937026868],[11.03227496273153,58.97045116952593],[10.950510989466226,58.882546915348605],[10.975640305046387,58.82262404969615],[11.10462943247314,58.8183384446389]]]},"properties":{"valkrets":"Västra Götalands läns norra"}},
{"type":"Feature","geometry":{"type":"Polygon","coordinates":[[[14.128774801140123,58.14632839986358],[14.12880326204504,58.14630757720505],[14.312860400641979,58.13184405400765],[14.27200467741496,58.19010085349247],[14.443227203828652,58.397958235327685],[14.52474234196053,58.48527597462601],[14.595559147433663,58.606941527077154],[14.739601688958825,58.67170431879453],[14.691348449964954,58.74013380609693],[14.62644943908851,58.694266152996725],[14.476823262494237,58.71336588344003],[14.421442293592742,58.79473101189906],[14.323959231955556,58.90372514229332],[14.291782784942356,58.98218503054537],[14.297852272377247,59.01222018469359],[14.224225519140077,59.04546436077607],[13.942758071613072,59.033088077920524],[13.930846611807116,58.998990086255034],[14.006035880680457,58.89271022822343],[13.94380161522215,58.93786418127267],[13.806357849695925,58.879042327877606],[13.56360436848759,58.86228108442706],[13.465542837840523,58.88827060757048],[13.383111890638979,58.81910520093184],[13.617054143696599,58.799104203424676],[13.630526930857094,58.71145318045012],[13.498165758729222,58.684976158460415],[13.339494807112864,58.611073758599424],[13.25291071317454,58.50414260221837],[13.14805318224588,58.52303308125576],[13.22110116293047,58.60315783770721],[13.267189074924412,58.72701391616714],[13.147292982467523,58.756194412015425],[13.083041998213556,58.72594117546921],[12.957171894633309,58.58200398671603],[12.875633704378124,58.530641056072895],[12.717018626721746,58.495652864610896],[12.646126701930314,58.41337187418912],[12.528164295396646,58.313024742612555],[12.528460637605475,58.23457060328595],[12.539989223347392,58.197104880376344],[12.68835213813298,58.18110697500672],[12.710974694642386,58.09676092799065],[12.903329814095759,58.11166660208948],[12.934739088578821,58.11245581191454],[13.189379209255009,58.12923738325205],[13.259046649321967,58.09283530639176],[13.356948361855016,57.98182323327438],[13.448782341233326,57.958394252644645],[13.559404150332606,58.00666115597722],[13.64887437318983,57.92836625077781],[13.729048103604937,57.93126823400574],[13.7010808508809,57.97673287108315],[13.78107377509606,58.05194190915034],[13.790030437964388,58.0559587744719],[13.790846428052928,58.05561188740679],[13.962684826285209,58.007870939987924],[14.06959827944756,58.02514889573496],[14.118626483070146,58.12117634078284],[14.128774801140123,58.14632839986358]]]},"properties":{"valkrets":"Västra Götalands läns östra"}},
{"type":"Feature","geometry":{"type":"Polygon","coordinates":[[[14.465133396697999,59.579922743633816],[14.401721199228078,59.74341371853619],[14.434713611476216,59.77094268295877],[14.437039713751942,60.02571777922738],[14.212702234933037,60.0957403351238],[14.149195680151546,60.2306613484483],[13.951066828482903,60.25100131143375],[13.965522393693972,60.17520496232047],[13.82800602936796,60.25474188969718],[13.670832549513793,60.403359199376425],[13.621691766595527,60.414389776316526],[13.471138567929803,60.45791050276455],[13.423590592037645,60.521063519749],[13.197323027146025,60.6985328778795],[13.08149861817655,60.80590879706595],[12.698696976861932,60.99812161381906],[12.670226622882343,61.05600100260123],[12.447685032537928,61.05075806459376],[12.22384082525104,61.0130394153435],[12.332811081716368,60.89026988030871],[12.395255291282956,60.733876873405286],[12.510829405502902,60.64240103994078],[12.606937264627838,60.512702439483085],[12.606057561878767,60.40588858490556],[12.498729923619202,60.32363593472899],[12.54191631403156,60.1933800223456],[12.500599966610517,60.099078963259515],[12.449698528243584,60.04034967668892],[12.341089219235059,59.96568509600475],[12.174287253226424,59.88981224290907],[11.984222500616477,59.900509953310454],[11.839563639639968,59.84090058458413],[11.926073462416818,59.79397092460262],[11.937762196643567,59.72814211730475],[11.855705480786302,59.648274492391614],[11.720610099412589,59.62547462605747],[11.691128174738177,59.58954128074574],[11.816221959616737,59.34475793325693],[11.82619352372924,59.23782091294855],[11.835723434401725,59.23581167600563],[11.988114944473727,59.224471223225166],[12.082203898872947,59.25723730947019],[12.235627129596315,59.25711635511216],[12.260836124531775,59.19449766270881],[12.422416325140407,59.192608112355856],[12.457417292995334,59.13215560518109],[12.581636177426356,59.1145614396249],[12.634929834602659,59.18095031188038],[12.754549313949973,59.13084541188181],[12.782371416895598,59.02366467255799],[12.850293904459368,59.034832812440314],[13.06772544291323,59.00383127590313],[12.966464184495333,58.9497029749541],[13.179309816934323,58.87644050727116],[13.194277803537249,58.785440146500946],[13.338150878441164,58.81326480138612],[13.259666920951682,58.98397653844542],[13.177413625708596,59.254728579425674],[13.392678214816259,59.250886270135545],[13.40625599799746,59.291397876158825],[13.49816666188554,59.252167379002216],[13.704031130432114,59.31026618217345],[13.734635983480041,59.25463571807238],[13.849009819270751,59.26388899201841],[14.023189033597456,59.22709422113271],[13.919758894946572,59.08774713580663],[13.942758071613072,59.033088077920524],[14.224225519140077,59.04546436077607],[14.297852272377247,59.01222018469359],[14.3372833170887,59.073241635595565],[14.29579986972172,59.127017354951285],[14.292934061277807,59.233882556949204],[14.325207471351588,59.318185571925355],[14.326239543946013,59.3179621339851],[14.46885668679142,59.44054586105963],[14.39079659206265,59.513773000781725],[14.475784392301934,59.52908210164177],[14.465133396697999,59.579922743633816]]]},"properties":{"valkrets":"Värmlands län"}},
{"type":"Feature","geometry":{"type":"Polygon","coordinates":[[[18.807227170892215,63.78850009354853],[18.75729668110422,63.81043203250839],[18.485499704348506,63.842645612552666],[18.43983587860054,63.89301657440026],[18.473686173001454,63.96479020990874],[18.406480535444135,63.995788899258336],[17.733435926053957,63.88009757013609],[17.261488292689293,63.91376387909784],[16.878297351056343,63.95067791189109],[16.71871850213541,64.02747577375543],[16.581246400848464,63.87319503130092],[16.563527923277157,63.82336772984467],[16.614200177951204,63.713986934221325],[16.31927958481669,63.69772685128904],[16.22834647872843,63.66081062732559],[16.087158134642184,63.704318654608834],[15.982880683895171,63.65427250960994],[15.79206565965587,63.65781537480418],[15.997457615239483,63.55063668887145],[15.98616947255088,63.51453293865103],[15.965825632757952,63.44412612213993],[16.13951926362929,63.42127099706321],[16.095961407173643,63.36917648727054],[16.5994828342319,63.17343612338354],[16.998979078254735,62.94696889491899],[16.670389260602917,62.9169081971154],[16.494362447550284,62.80834355952544],[16.369904287334315,62.696266738416924],[16.13046057179756,62.691212768078955],[15.965263482714185,62.71275220454356],[15.516854576923835,62.617236234001176],[15.093540288462199,62.584074015459265],[14.91673958585499,62.59809114728111],[14.78109282514914,62.59076683973957],[14.801228019980636,62.40405821827602],[14.873620430860756,62.40047770705042],[14.939513386482066,62.32032736652563],[15.152639092986611,62.249983776639944],[15.326117656917193,62.27198834985794],[15.50534796443102,62.33862936864365],[15.613157534978964,62.34348940498945],[16.013351783031606,62.25921418136237],[16.251267825932494,62.23452657617638],[16.520933587586462,62.233006639820175],[16.801411138598855,62.20283306122181],[16.96183719763731,62.16294187488317],[17.33648674701103,62.15509243745535],[17.527910267931006,62.13260747937546],[17.725751427519466,62.11762272675406],[17.767525299856935,62.21721318384234],[17.578090508446746,62.26440864364743],[17.54784837619734,62.31862335993051],[17.655807831493206,62.37941618816642],[17.759951772269044,62.3970613742371],[17.741716645803315,62.497010594142814],[17.900760448149374,62.47951176554091],[18.084763397118085,62.607990890560245],[18.210901449714594,62.731753124946515],[18.292640489551875,62.81713079115897],[18.516127318573197,62.85998485656324],[18.65552094741457,62.949187902303635],[18.831777216645204,63.14069032919944],[18.9139145255951,63.187826505510095],[19.046746115994463,63.17978248432076],[19.258952884955264,63.317076060816724],[19.31444911670823,63.43291423666144],[19.18183782404871,63.59842999538097],[18.961870992550043,63.7604733442264],[18.807227170892215,63.78850009354853]]]},"properties":{"valkrets":"Västernorrlands län"}},
{"type":"Feature","geometry":{"type":"Polygon","coordinates":[[[12.258357024669925,56.98732620026949],[12.3814021552646,56.8956618213769],[12.51213184501586,56.86974243434519],[12.605034458437853,56.77748696205571],[12.629602767390317,56.70338115244989],[12.712551516992892,56.63430238206478],[12.82620764701429,56.638245590807074],[12.931992514728794,56.55309576551344],[12.797266530886406,56.55295895552542],[12.890862046481569,56.4537707383088],[12.965760349763736,56.42770336185111],[12.949812778717098,56.3693227769314],[13.14864317891076,56.35286776686879],[13.195989167862761,56.32413619005346],[13.29265517845029,56.38041415029141],[13.461757612845553,56.42783708356789],[13.464791150292722,56.51395667054386],[13.397585355394355,56.60884725112751],[13.307793887731522,56.685465331933386],[13.298157125339486,56.823652069148196],[13.687422852660209,56.92681161940649],[13.680703589382853,56.9720986552576],[13.595466319421448,57.015259029114304],[13.603588077667446,57.059657753134765],[13.351407916808979,57.113287251821255],[13.121793520535714,57.053633786061035],[13.079071715966728,57.098897206605756],[13.100284178867316,57.14556470644536],[13.02091276822873,57.15748522272432],[12.914430746728836,57.219832214614755],[12.906916512398809,57.27001229535241],[12.807536430000876,57.301109121674976],[12.762805430978286,57.27341079400674],[12.609217193390055,57.34666778003094],[12.504577165993775,57.281053870307396],[12.430221817859792,57.269355964501194],[12.386982101468497,57.35152922672683],[12.402282284504068,57.43624155672355],[12.323965698787,57.4631274111626],[12.340954655343289,57.56172404500022],[12.2772035952251,57.597454379901556],[12.05694561565699,57.55055813294515],[12.004411872125253,57.554303595050634],[11.987898238817563,57.56468548001997],[11.987958183937558,57.56502947650712],[11.987960341450828,57.56504185744799],[11.985955581168303,57.564841658129495],[11.878030316670019,57.55913455943707],[11.817528408392885,57.55568500561484],[11.796012552822777,57.52434162289333],[11.821543276690333,57.40011447052085],[11.917991875705065,57.25977953209606],[12.024475974079893,57.312676425092114],[12.082799144108229,57.20724788363366],[12.258357024669925,56.98732620026949]]]},"properties":{"valkrets":"Hallands län"}},
{"type":"Feature","geometry":{"type":"Polygon","coordinates":[[[13.278207368771335,64.08915781317371],[12.926668340274055,64.05793814562288],[12.683569122846983,63.97422305178783],[12.33042601324413,63.71509830679643],[12.149771405464387,63.59394591166178],[12.212884288620975,63.47859103488129],[11.974586412466614,63.26922783616476],[12.218246965157542,63.000315164734026],[12.07492977455981,62.90267211151299],[12.136408218039636,62.747911066454535],[12.056136629979294,62.61193087703694],[12.29940919104123,62.267497655142755],[12.607814691381112,62.214781921221466],[12.80596833844953,62.22052552200408],[12.90263819977283,62.14185111365175],[13.158677991737685,62.019661076497876],[13.391925529599877,62.00081259309836],[13.200315677201205,61.92909836113572],[13.383156687527169,61.83397246031081],[13.51154453419587,61.70975676872568],[13.59837602790713,61.65633080889893],[13.976792036615775,61.62140119713759],[14.336127964677846,61.59936882960011],[14.394581261203504,61.563907993942486],[14.446646175099128,61.59468380711631],[14.499384486215565,61.62587482603621],[14.530300034009267,61.78381044962621],[14.672944459101497,61.89661672388132],[15.0449566486687,61.86800911119148],[15.092142986590304,61.996852572409175],[15.417154149437328,62.11139077576187],[15.429245958961843,62.14490205944503],[15.326117656917193,62.27198834985794],[15.152639092986611,62.249983776639944],[14.939513386482066,62.32032736652563],[14.873620430860756,62.40047770705042],[14.801228019980636,62.40405821827602],[14.78109282514914,62.59076683973957],[14.91673958585499,62.59809114728111],[15.093540288462199,62.584074015459265],[15.516854576923835,62.617236234001176],[15.965263482714185,62.71275220454356],[16.13046057179756,62.691212768078955],[16.369904287334315,62.696266738416924],[16.494362447550284,62.80834355952544],[16.670389260602917,62.9169081971154],[16.998979078254735,62.94696889491899],[16.5994828342319,63.17343612338354],[16.095961407173643,63.36917648727054],[16.13951926362929,63.42127099706321],[15.965825632757952,63.44412612213993],[15.98616947255088,63.51453293865103],[15.997457615239483,63.55063668887145],[15.79206565965587,63.65781537480418],[15.982880683895171,63.65427250960994],[16.087158134642184,63.704318654608834],[16.22834647872843,63.66081062732559],[16.31927958481669,63.69772685128904],[16.614200177951204,63.713986934221325],[16.563527923277157,63.82336772984467],[16.581246400848464,63.87319503130092],[16.71871850213541,64.02747577375543],[16.219191477309785,64.26394745319224],[16.04254657673325,64.24888395916803],[16.02235123678528,64.33280250857374],[15.74016504433733,64.40410746651217],[15.704370211928063,64.5380027116422],[15.520761938047908,64.53215002731032],[15.301182866281222,64.62502573985923],[15.334449886609171,64.66903881727606],[15.224746550520557,64.72274068009749],[15.031346207233627,64.76150880781037],[14.973933242373338,64.84614202606642],[14.8639484582076,64.86863691925552],[14.705107343154037,64.9813498456205],[14.613031465164418,65.00236411400019],[14.325899412449635,65.11891672494014],[14.129826681062488,64.9785541908823],[13.705537835554903,64.63996991230053],[13.65427840836671,64.58032028145787],[13.89114502208619,64.50714167889727],[14.08524571809691,64.47835504476473],[14.12661975169466,64.38741619016922],[14.15711131353268,64.1950559129863],[13.967542471688795,64.00796584782582],[13.715361385380717,64.04631359284483],[13.278207368771335,64.08915781317371]]]},"properties":{"valkrets":"Jämtlands län"}},
{"type":"Feature","geometry":{"type":"Polygon","coordinates":[[[15.967410163645962,58.94715438682477],[15.820751693528258,59.018430982811985],[15.687632734689,58.98196845440531],[15.55524578066828,58.956517977335714],[15.591549700634294,58.911881701164035],[15.441678779839226,58.86213876078692],[15.413575910984878,58.80689998696741],[15.347592332431187,58.82921235959214],[15.27543234833106,58.86322006303648],[15.034543402277478,58.70429044599303],[14.91940226485785,58.69428857077243],[14.778818210028962,58.64616709367528],[14.865045327853538,58.618411001653946],[14.766299253621954,58.53401794727965],[14.894633198325975,58.52575441666251],[14.883684851696604,58.48463227183384],[14.767349349503933,58.46119385167187],[14.644809063361375,58.350553621697905],[14.604102495469231,58.255163444974535],[14.439688129830222,58.165051924282096],[14.54357944361963,58.111371809036164],[14.593376194620795,58.098539244517006],[14.880300600055392,58.09089046325008],[14.898600751052104,58.13771608980497],[14.99527752937352,58.12180188324396],[15.06365317509147,58.02529851099243],[15.00458805127911,57.933428052186834],[15.07802703646132,57.83589688777179],[15.128147753352684,57.72022434142648],[15.421464494864933,57.70472902863983],[15.54235090668144,57.79017424819821],[15.599085234247566,57.853659735398224],[15.756669494100068,57.85089817369223],[15.822336548215635,57.816564317955155],[15.964530028595583,57.82332452913113],[16.06244012812062,57.87333741573763],[16.029363720358337,57.92121220169655],[16.072442046201214,57.973540120326994],[15.995490083231719,58.021969648106925],[16.014523486279128,58.08556820537837],[16.069892536307194,58.06991899473386],[16.26485733718185,58.14244677051153],[16.397756021240486,58.12949945287413],[16.532510494570985,58.11619851760619],[16.627470479211222,58.00279328504382],[16.734105245270534,57.98685117360295],[16.896284189148957,58.003120322353844],[16.927235748335548,58.0437379017193],[16.8860655119071,58.16038929516273],[17.05828508793677,58.166681271204205],[17.094008752548625,58.30904381364981],[17.118344782990018,58.43766228079018],[17.148985772867807,58.503344168104235],[17.06982890915108,58.59066138028076],[16.827377907936057,58.59426811026286],[16.68977875069823,58.675619794018175],[16.58449867116967,58.697829245281646],[16.385802884451614,58.70359268646433],[16.368671691478337,58.75302734968896],[16.271809052550907,58.82220748792251],[16.263610735658716,58.83223309467676],[16.18232062559114,58.853868428504256],[16.08129323973079,58.917414226877504],[15.967410163645962,58.94715438682477]]]},"properties":{"valkrets":"Östergötlands län"}},
{"type":"Feature","geometry":{"type":"Polygon","coordinates":[[[14.2992011253544,56.87921282188605],[14.132354315481194,57.02255354362599],[14.016803229001425,57.051819119655114],[13.821859887898079,57.00799831016371],[13.746881646768477,57.03851902878669],[13.680703589382853,56.9720986552576],[13.687422852660209,56.92681161940649],[13.298157125339486,56.823652069148196],[13.307793887731522,56.685465331933386],[13.397585355394355,56.60884725112751],[13.464791150292722,56.51395667054386],[13.461757612845553,56.42783708356789],[13.580654536737256,56.40903148712597],[13.696351027097908,56.4246408662554],[13.71583214120202,56.43112517195212],[14.025203818354756,56.46791655699073],[14.091331283868852,56.53280248289334],[14.179873204569466,56.494101353840115],[14.26739967444334,56.50683430590981],[14.514466816313378,56.460031031097884],[14.520264436695966,56.45835874786737],[14.580213089251753,56.44399223617203],[14.66821462773053,56.39877331918294],[14.672730122838832,56.39011779653224],[14.85862197209398,56.35998821729171],[14.930772079933814,56.38373510527464],[14.979227287757091,56.43402709868546],[15.123361521873402,56.45520627344418],[15.31684345880015,56.455521840605016],[15.364680912339301,56.482137990281494],[15.367139926394334,56.60229720870792],[15.420655452511644,56.701252009911244],[15.36083934011443,56.75796736840722],[15.522570740584706,56.80283658518025],[15.552579123662186,56.838390203227945],[15.52865986248806,56.900406908930215],[15.519270726347253,56.900659917938654],[15.519286934953804,56.90069465263784],[15.799928237871361,56.91493306674235],[15.82870543579165,56.99209983483269],[15.729890864408423,57.0614407279448],[15.529083006344596,57.19158471929355],[15.514831038452723,57.20222466471809],[15.371630314948586,57.22691864767495],[15.149201728825608,57.21442576926327],[15.064016816841471,57.181478611537344],[14.902070057987837,57.136019394662576],[14.870621189566066,57.198318297434426],[14.789956665241178,57.22457546988093],[14.555714417516416,57.18719495945192],[14.489495697149641,57.15212075204221],[14.397868160836136,57.151107959657054],[14.333996716984359,57.01765407787765],[14.394461177298098,56.964590487663344],[14.2992011253544,56.87921282188605]]]},"properties":{"valkrets":"Kronobergs län"}},
{"type":"Feature","geometry":{"type":"Polygon","coordinates":[[[16.06667368222401,56.3215068224347],[16.022395227716007,56.31508162244863],[15.980023268793339,56.30410386261803],[15.975273012504402,56.30523998563419],[15.975240313055941,56.305243711794134],[15.97319399199266,56.30521899958601],[15.973130523294632,56.30529148828294],[15.97305535425103,56.305387593630215],[15.973187097247571,56.30583829896143],[15.973258174554752,56.306321762709565],[15.973258614839416,56.306332316039025],[15.972774457265222,56.306768598281906],[15.974639006580526,56.30905243844053],[15.970542708648779,56.31340697858564],[15.970348826689623,56.31388575140158],[15.969785712855153,56.3140473287962],[15.969589001919683,56.31406197240597],[15.96694773781968,56.31269480228057],[15.966893461176534,56.31261502005246],[15.955980862092952,56.31453136108042],[15.955983082574912,56.31474171269682],[15.95598380596704,56.314749223178545],[15.956837690366186,56.316208445990256],[15.947689112229405,56.31683027856459],[15.94051271352438,56.31650790765101],[15.940158066793536,56.316154382409835],[15.940071243943644,56.31609756831716],[15.93941902646443,56.315940349415],[15.939293667110862,56.31594576307793],[15.9012072831058,56.3162523713852],[15.899073109903231,56.31651549964531],[15.877520526440492,56.317309379872285],[15.877358842029972,56.31729873049386],[15.873561139224092,56.31793089608642],[15.873196348852321,56.31758996542489],[15.872249118377582,56.31770393321054],[15.872219328601778,56.31771178142437],[15.777001820265925,56.370120881375854],[15.778113998293424,56.37261609016079],[15.777337096892682,56.374050139102295],[15.776770517563747,56.37487605643086],[15.775995530770663,56.37777125885975],[15.776064422284453,56.37803679809952],[15.775599015809584,56.37974537732436],[15.77480944688634,56.38018836036727],[15.774248362007633,56.38021124992323],[15.773059830984101,56.38099418821021],[15.772521594575728,56.381255659985875],[15.76567337883419,56.38334250776762],[15.76549142497136,56.3834344820548],[15.763183994670545,56.38464634629749],[15.762502784824253,56.38518981726635],[15.76183003146991,56.38643746097522],[15.761813598850047,56.38674299042386],[15.75847872711915,56.38915976913995],[15.758000430739022,56.38941207581482],[15.752415367869931,56.398024875598686],[15.7500177054422,56.40025933443558],[15.74969840574857,56.40058151547357],[15.749444377370837,56.4008098400023],[15.74728327187571,56.4011712789248],[15.74695952368565,56.40139402838187],[15.746687411061016,56.40154465575774],[15.746400890369609,56.40170325868891],[15.745933829980789,56.40210382960307],[15.74575662872214,56.40300370829105],[15.7448412526823,56.403655055061655],[15.74327105228452,56.40789376164247],[15.74037833305826,56.40946635249891],[15.736146635010089,56.414163948118095],[15.721977735027078,56.41729919969883],[15.714483846595781,56.418603970113246],[15.70668351133449,56.42041431950409],[15.706605834556203,56.42043934735256],[15.701710574474838,56.42201662476118],[15.700971843307606,56.422190128901995],[15.69203990264149,56.42360625699611],[15.687373921205513,56.42403720312888],[15.67724382798235,56.42490955920773],[15.664205181858124,56.440829106585284],[15.666096940624064,56.44790249281518],[15.665136765958048,56.45061328942919],[15.662849663144412,56.452289968479754],[15.658409198263472,56.46032475213558],[15.654659771999787,56.46259653652884],[15.65418579488754,56.46340646315601],[15.630763534998675,56.46161804747058],[15.630180146433077,56.462037673664824],[15.624315560597491,56.46415898875198],[15.62075614366275,56.465634770486396],[15.605899534857526,56.470696425384276],[15.586885188042546,56.48763980553844],[15.587154685336584,56.48905905986195],[15.588406039441809,56.491117234186454],[15.587551719104805,56.49122367170881],[15.58724686692886,56.49152041318746],[15.586360276749856,56.49238341532892],[15.58602386551115,56.492710640362006],[15.585661816411069,56.49306228373441],[15.585391488558729,56.49384863201139],[15.585522289713486,56.4941487573424],[15.585814448447795,56.49518871260619],[15.575966358219727,56.49481101476233],[15.5714915909921,56.496683105323015],[15.5601257804505,56.499926095235104],[15.552910485653658,56.501015977657325],[15.550425712416489,56.5020773764706],[15.517676343413422,56.496725702878805],[15.516730771307952,56.495352687867964],[15.515803618259572,56.49491929006228],[15.512835345268268,56.48788255988192],[15.511861947287994,56.47656703545749],[15.510676486424902,56.4759692457968],[15.50486763352576,56.4741188628807],[15.48101761358262,56.47978346087423],[15.480603370054492,56.47997555555476],[15.364680912339301,56.482137990281494],[15.31684345880015,56.455521840605016],[15.123361521873402,56.45520627344418],[14.979227287757091,56.43402709868546],[14.930772079933814,56.38373510527464],[14.85862197209398,56.35998821729171],[14.672730122838832,56.39011779653224],[14.672710137725339,56.39012398257524],[14.66821462773053,56.39877331918294],[14.580213089251753,56.44399223617203],[14.520264436695966,56.45835874786737],[14.5142349660761,56.45981585965833],[14.420960858979944,56.37988645196932],[14.397037806842299,56.31811337786531],[14.430509217973315,56.28971908677869],[14.435475102811665,56.25336568608107],[14.441737122500395,56.228933513248165],[14.574489452890216,56.19048348112303],[14.586077445067334,56.130576861328144],[14.532753360930698,56.012008043744956],[14.635319951614726,55.98493776829389],[14.864282276483305,55.997613436909944],[14.736139349770712,56.072147118680014],[14.702267534795798,56.14453126638748],[14.931697013319067,56.14172200816771],[15.062376501601898,56.121498085374206],[15.137993072197785,56.1428064832199],[15.412970368182348,56.111123987750865],[15.622088637464211,56.08011750776892],[15.793963693974433,56.008265176016685],[15.9214892782747,56.14600086280601],[16.047047556381415,56.22537822109642],[16.06667368222401,56.3215068224347]]]},"properties":{"valkrets":"Blekinge län"}},
{"type":"Feature","geometry":{"type":"Polygon","coordinates":[[[12.949812778717098,56.3693227769314],[12.965760349763736,56.42770336185111],[12.890862046481569,56.4537707383088],[12.816665921957073,56.444822570946336],[12.70416639604429,56.48276928948848],[12.612397745760045,56.43477350724095],[12.74529171403987,56.320451064618425],[12.822912754011629,56.27519966541561],[12.785567502609105,56.22766027310583],[12.83897736487567,56.1285446372481],[12.87400081280073,56.09420405115015],[13.00448105391143,56.11315902004711],[13.070141363477672,56.074504983181995],[13.097852809692492,56.08844082018057],[13.226375325161653,56.02390218067963],[13.33604073006557,56.006714418933164],[13.380800402915074,56.000993707762994],[13.52250939434866,56.08867548955129],[13.66417964591616,56.0342467102217],[13.62026694655837,55.95594150940564],[13.749726071461337,55.941558433801895],[13.907503120657816,55.89989427987467],[13.96144394282851,55.77670241513643],[13.921195395683919,55.74855315966664],[13.891603742092597,55.71538492171474],[13.98634359512882,55.64928165357607],[13.85035926307971,55.566075149854214],[13.989755256893593,55.46683536668371],[14.07420909642377,55.47998666740467],[14.216821933235627,55.39800002589272],[14.350951256435877,55.504702461603166],[14.367290651146096,55.55131655483902],[14.307361329451647,55.60536882910683],[14.284719468476599,55.67986993447529],[14.208768439994076,55.70292707701973],[14.196195411558213,55.76582645112595],[14.2642770359282,55.88982420609351],[14.34678043062852,55.951323121812614],[14.48132952031276,55.96311858170253],[14.493693260823134,56.01509701235607],[14.532753360930698,56.012008043744956],[14.586077445067334,56.130576861328144],[14.574489452890216,56.19048348112303],[14.441737122500395,56.228933513248165],[14.440871347770106,56.22904929131119],[14.435475102811665,56.25336568608107],[14.430509217973315,56.28971908677869],[14.39015138903876,56.301327378055824],[14.397037806842299,56.31811337786531],[14.420960858979944,56.37988645196932],[14.5142349660761,56.45981585965833],[14.514466816313378,56.460031031097884],[14.26739967444334,56.50683430590981],[14.179873204569466,56.494101353840115],[14.091331283868852,56.53280248289334],[14.025203818354756,56.46791655699073],[13.71583214120202,56.43112517195212],[13.696351027097908,56.4246408662554],[13.580654536737256,56.40903148712597],[13.461757612845553,56.42783708356789],[13.29265517845029,56.38041415029141],[13.195989167862761,56.32413619005346],[13.14864317891076,56.35286776686879],[12.949812778717098,56.3693227769314]]]},"properties":{"valkrets":"Skåne läns norra och östra"}},
{"type":"Feature","geometry":{"type":"Polygon","coordinates":[[[15.55524578066828,58.956517977335714],[15.687632734689,58.98196845440531],[15.617349460655134,59.0232740894403],[15.701174239545782,59.095040816150245],[15.783655442712503,59.106234947247835],[15.769089346552262,59.18372310267901],[15.762037679464507,59.197919167307845],[15.599332190134222,59.37325074514815],[15.72120367297288,59.41039406655236],[15.713399609485645,59.525748142957426],[15.630474486847936,59.52890704638324],[15.615686537898831,59.63046745528507],[15.550370381600173,59.699171933090156],[15.505398289767156,59.79607248138523],[15.42223846699992,59.85414539349269],[15.228427987461057,59.976132792467254],[15.125464734996903,60.00841956999081],[15.013429876415605,60.05739003422073],[14.904783986295636,60.05134208734128],[14.807659626148522,60.1109343253324],[14.737342297730468,60.08174688132398],[14.753656721554215,59.99717567643903],[14.437039713751942,60.02571777922738],[14.434713611476216,59.77094268295877],[14.401721199228078,59.74341371853619],[14.465133396697999,59.579922743633816],[14.475784392301934,59.52908210164177],[14.39079659206265,59.513773000781725],[14.46885668679142,59.44054586105963],[14.326239543946013,59.3179621339851],[14.325207471351588,59.318185571925355],[14.292934061277807,59.233882556949204],[14.29579986972172,59.127017354951285],[14.3372833170887,59.073241635595565],[14.297852272377247,59.01222018469359],[14.291782784942356,58.98218503054537],[14.323959231955556,58.90372514229332],[14.421442293592742,58.79473101189906],[14.476823262494237,58.71336588344003],[14.62644943908851,58.694266152996725],[14.691348449964954,58.74013380609693],[14.739601688958825,58.67170431879453],[14.778818210028962,58.64616709367528],[14.91940226485785,58.69428857077243],[15.034543402277478,58.70429044599303],[15.27543234833106,58.86322006303648],[15.347592332431187,58.82921235959214],[15.413575910984878,58.80689998696741],[15.441678779839226,58.86213876078692],[15.591549700634294,58.911881701164035],[15.55524578066828,58.956517977335714]]]},"properties":{"valkrets":"Örebro län"}},
{"type":"Feature","geometry":{"type":"Polygon","coordinates":[[[13.124985914993191,55.60770643847458],[13.14034250121725,55.59991880491167],[13.106683878712321,55.5242558717011],[12.904778624624674,55.49112266735782],[13.011032453298883,55.38053096826729],[13.356527970027248,55.32758373359841],[13.483894202107663,55.376966294176626],[13.65727115248117,55.41403270842694],[13.94673034554173,55.426032009332296],[14.058622882377568,55.373951366625285],[14.216821933235627,55.39800002589272],[14.07420909642377,55.47998666740467],[13.989755256893593,55.46683536668371],[13.85035926307971,55.566075149854214],[13.98634359512882,55.64928165357607],[13.891603742092597,55.71538492171474],[13.921195395683919,55.74855315966664],[13.786700554098852,55.775351507515474],[13.757288782205853,55.742669983944054],[13.613652660646789,55.73005900644411],[13.571218962199909,55.68884625257533],[13.498856318621417,55.721569748037545],[13.206515976153542,55.78627230762002],[13.14616751092296,55.82974400201386],[13.05903675006019,55.84115914571146],[12.904824125897992,55.82294624238207],[12.890389607842122,55.7424411120389],[12.989970751871596,55.71481391563997],[13.018319252819472,55.64127104996442],[13.022848776556181,55.64012522171885],[13.124985914993191,55.60770643847458]]]},"properties":{"valkrets":"Skåne läns södra"}},
{"type":"Feature","geometry":{"type":"Polygon","coordinates":[[[12.710974694642386,58.09676092799065],[12.68835213813298,58.18110697500672],[12.539989223347392,58.197104880376344],[12.433724003129603,58.09522432607729],[12.375519820219939,58.11730802554839],[12.187776585611696,58.13476677020967],[12.157717602508436,58.2166606610644],[12.228630770472504,58.25655083525095],[12.136342274216837,58.30807024019543],[12.118659698893328,58.304542869670875],[11.983182936751845,58.14993693611123],[11.853305452675345,58.16024095296015],[11.748396228136967,58.10569358560681],[11.504689355386926,58.052874778178776],[11.379791418407445,58.04910748922659],[11.48434973491016,57.968622103134145],[11.418273690058975,57.88843172522862],[11.458862781667952,57.86296764698176],[11.556345501350576,57.80652981144623],[11.600006657347116,57.65205724758411],[11.704225482587402,57.66515854948254],[11.731615143849867,57.771095089808355],[12.013761783796022,57.860825301389546],[12.146050034761126,57.86476611449178],[12.241609978405599,57.79635860704425],[12.173710926564407,57.77595727056392],[12.078197012314629,57.76181709386768],[12.088665965875162,57.682167473415504],[12.056735504390621,57.67823670445674],[11.949220586700221,57.663544714193684],[11.987960341450828,57.56504185744799],[11.987959017476236,57.56502955284427],[11.987898238817563,57.56468548001997],[12.004411872125253,57.554303595050634],[12.05694561565699,57.55055813294515],[12.2772035952251,57.597454379901556],[12.273324807812978,57.605828140396355],[12.562171645761344,57.619840742185865],[12.479868861337845,57.71521282295086],[12.427556547100844,57.73130111339282],[12.4844064198949,57.77644955110235],[12.576216373640756,57.7914637777149],[12.660100402217273,57.85639990859951],[12.648371070286156,57.95028913653796],[12.539315298117879,57.99847088593609],[12.580538016307276,58.04724151843705],[12.710974694642386,58.09676092799065]]]},"properties":{"valkrets":"Västra Götalands läns västra"}},
{"type":"Feature","geometry":{"type":"Polygon","coordinates":[[[16.26312382269248,59.45238828873427],[16.702413326094206,59.48772100204659],[16.90628290853119,59.47957554132364],[16.965907704287872,59.52035201287262],[16.85480955826111,59.66660304201217],[16.728958496510423,59.7767628008779],[16.810153413376916,59.81944429858472],[16.80055742370399,59.87307992225431],[16.79900888441317,59.881501642426485],[16.794334849682254,59.94587319522564],[16.716176530686724,60.01085781190566],[16.704790577578322,60.195096410207796],[16.527031478525863,60.16461812906757],[16.38720130276213,60.08140562751261],[16.184128590416616,60.076001936378134],[16.13235138257105,60.13856923475366],[16.016906890138355,60.181449165713325],[15.801416225264964,60.17747512350994],[15.72525260079284,60.09922420399994],[15.730885477933029,60.0230065245485],[15.681751058582703,59.93792237120732],[15.531232382199768,59.957161919561926],[15.42223846699992,59.85414539349269],[15.505398289767156,59.79607248138523],[15.550370381600173,59.699171933090156],[15.615686537898831,59.63046745528507],[15.630474486847936,59.52890704638324],[15.713399609485645,59.525748142957426],[15.72120367297288,59.41039406655236],[15.599332190134222,59.37325074514815],[15.762037679464507,59.197919167307845],[15.892737994887993,59.23048348606218],[15.864693652157904,59.284039074159914],[15.9964443415585,59.359541098614066],[16.156657428650412,59.346451203234146],[16.266484733275487,59.36195201357715],[16.24880882951376,59.44020763818142],[16.254258890392343,59.45245634997319],[16.26312382269248,59.45238828873427]]]},"properties":{"valkrets":"Västmanlands län"}},
{"type":"Feature","geometry":{"type":"Polygon","coordinates":[[[13.746881646768477,57.03851902878669],[13.821859887898079,57.00799831016371],[14.016803229001425,57.051819119655114],[14.132354315481194,57.02255354362599],[14.2992011253544,56.87921282188605],[14.394461177298098,56.964590487663344],[14.333996716984359,57.01765407787765],[14.397868160836136,57.151107959657054],[14.489495697149641,57.15212075204221],[14.555714417516416,57.18719495945192],[14.789956665241178,57.22457546988093],[14.870621189566066,57.198318297434426],[14.902070057987837,57.136019394662576],[15.064016816841471,57.181478611537344],[15.149201728825608,57.21442576926327],[15.371630314948586,57.22691864767495],[15.514831038452723,57.20222466471809],[15.463042923349542,57.26538632720483],[15.51180232395585,57.3196833245402],[15.498255531413816,57.43531006681885],[15.609175113751578,57.43936475019149],[15.630024702770863,57.53022394377786],[15.57681340331537,57.547680473500456],[15.576515635394163,57.547890940022604],[15.576550729310847,57.54795385760277],[15.665674249178675,57.59928708698422],[15.421464494864933,57.70472902863983],[15.128147753352684,57.72022434142648],[15.07802703646132,57.83589688777179],[15.00458805127911,57.933428052186834],[15.06365317509147,58.02529851099243],[14.99527752937352,58.12180188324396],[14.898600751052104,58.13771608980497],[14.880300600055392,58.09089046325008],[14.593376194620795,58.098539244517006],[14.54357944361963,58.111371809036164],[14.437262790340904,58.00170819501635],[14.323287927551814,57.93715030642439],[14.265424974571477,57.85299756357955],[14.267224902707166,57.79609478856714],[14.158732443826008,57.78557139148403],[14.118426992492456,57.877668787796374],[14.16377190878614,58.006616162842334],[14.312860400641979,58.13184405400765],[14.12880326204504,58.14630757720505],[14.118626483070146,58.12117634078284],[14.06959827944756,58.02514889573496],[13.962684826285209,58.007870939987924],[13.790846428052928,58.05561188740679],[13.78107377509606,58.05194190915034],[13.7010808508809,57.97673287108315],[13.729048103604937,57.93126823400574],[13.731661431736413,57.84544110910029],[13.722499667632,57.691694010492256],[13.723478882162828,57.68184743117711],[13.724238958575068,57.67420441481752],[13.664240663909643,57.615046809692345],[13.688571408852907,57.5582867494044],[13.604525881463134,57.50745678325124],[13.468423452012457,57.37127205157334],[13.282132162666079,57.30745177759807],[13.100284178867316,57.14556470644536],[13.079071715966728,57.098897206605756],[13.121793520535714,57.053633786061035],[13.351407916808979,57.113287251821255],[13.603588077667446,57.059657753134765],[13.595466319421448,57.015259029114304],[13.680703589382853,56.9720986552576],[13.746881646768477,57.03851902878669]]]},"properties":{"valkrets":"Jönköpings län"}},
{"type":"Feature","geometry":{"type":"Polygon","coordinates":[[[17.224716587400664,61.39111452418144],[17.192712467571774,61.48073393208749],[17.263850158638196,61.54858691487358],[17.346109349871874,61.505541993289555],[17.48131139946889,61.528131159832604],[17.504349753346677,61.609492543473436],[17.588322572871302,61.73628065724954],[17.393732513283844,61.75417929151195],[17.44576524578496,61.819803662656305],[17.36372115634928,61.851516947348856],[17.658320813038554,61.997381270412355],[17.725433598962947,62.116862391723764],[17.527910267931006,62.13260747937546],[17.33648674701103,62.15509243745535],[16.96183719763731,62.16294187488317],[16.801411138598855,62.20283306122181],[16.520933587586462,62.233006639820175],[16.251267825932494,62.23452657617638],[16.013351783031606,62.25921418136237],[15.613157534978964,62.34348940498945],[15.50534796443102,62.33862936864365],[15.326117656917193,62.27198834985794],[15.429245958961843,62.14490205944503],[15.417154149437328,62.11139077576187],[15.092142986590304,61.996852572409175],[15.0449566486687,61.86800911119148],[14.672944459101497,61.89661672388132],[14.530300034009267,61.78381044962621],[14.499384486215565,61.62587482603621],[14.446646175099128,61.59468380711631],[14.676598311022754,61.59132256836757],[14.673685222161742,61.48900687782428],[14.90091339667782,61.49654110234436],[15.093219610974035,61.48411848614671],[15.216270011589526,61.4946545005348],[15.44012775997836,61.33316376237771],[15.6573517443766,61.215617936201234],[15.680321307800448,61.113271448663376],[15.761960663881878,61.04963615705105],[15.92135186839721,61.00766198120591],[16.131006333398762,60.99214473057012],[16.25219543456257,60.86690320214804],[16.38615442511931,60.786793558518426],[16.379664546486936,60.74850278205368],[16.197644420842845,60.61404736599898],[16.136487793140567,60.61030935967288],[16.194822158298443,60.53531075409674],[16.392682120312116,60.37936188979612],[16.516600263039564,60.35549524630953],[16.704790577578322,60.195096410207796],[16.904900163804562,60.239488401656516],[16.908877833231312,60.281497908258714],[17.058470710785194,60.27296594239247],[17.193815814023903,60.30081207098145],[17.195527904838112,60.4104824692245],[17.287808152892058,60.446772066947],[17.37813853094762,60.6630005985669],[17.395594885816763,60.68575748950157],[17.668834001602075,60.70604862995147],[17.40570389867626,60.78465158358492],[17.253160906743982,60.89169898181382],[17.311978689942105,61.01181463041977],[17.256680408548867,61.07572824273964],[17.198463309081884,61.21206234579023],[17.314860894733332,61.2450128294645],[17.357307446632948,61.34864359953461],[17.224716587400664,61.39111452418144]]]},"properties":{"valkrets":"Gävleborgs län"}},
{"type":"Feature","geometry":{"type":"Polygon","coordinates":[[[13.070141363477672,56.074504983181995],[13.00448105391143,56.11315902004711],[12.87400081280073,56.09420405115015],[12.83897736487567,56.1285446372481],[12.785567502609105,56.22766027310583],[12.764269607096963,56.23308482179916],[12.515005978358994,56.30457029310037],[12.520445428646033,56.23926629091165],[12.583475380454615,56.13597289872052],[12.67530815352944,56.06024515661723],[12.743256455309178,55.95802396229763],[12.805465869094956,55.84610695127706],[12.904824125897992,55.82294624238207],[13.05903675006019,55.84115914571146],[13.14616751092296,55.82974400201386],[13.206515976153542,55.78627230762002],[13.498856318621417,55.721569748037545],[13.571218962199909,55.68884625257533],[13.613652660646789,55.73005900644411],[13.757288782205853,55.742669983944054],[13.786700554098852,55.775351507515474],[13.921195395683919,55.74855315966664],[13.96144394282851,55.77670241513643],[13.907503120657816,55.89989427987467],[13.749726071461337,55.941558433801895],[13.62026694655837,55.95594150940564],[13.66417964591616,56.0342467102217],[13.52250939434866,56.08867548955129],[13.380800402915074,56.000993707762994],[13.33604073006557,56.006714418933164],[13.226375325161653,56.02390218067963],[13.097852809692492,56.08844082018057],[13.070141363477672,56.074504983181995]]]},"properties":{"valkrets":"Skåne läns västra"}},
{"type":"Feature","geometry":{"type":"Polygon","coordinates":[[[19.305992666949816,57.923572850608295],[19.317535716647974,57.996434319867326],[19.154818214589348,58.004464124823755],[19.030154476918216,57.926771734686966],[18.756372618709516,57.92992273356516],[18.63820299888807,57.903454012718],[18.5922073858312,57.85507242820778],[18.439496232838174,57.823105242188376],[18.3391748592657,57.69243075007063],[18.093078132057414,57.53390432439457],[18.15524375849847,57.31624518746199],[18.065507088487664,57.322873105807034],[17.953463554781962,57.27640551677493],[18.13456972747634,57.24126293299881],[18.14314871652622,57.16477803800754],[18.19943716612864,57.12249255779227],[18.19643070318953,57.029574265989645],[18.1168769565493,56.90616521510398],[18.288948205334265,56.91848357816829],[18.40923590899195,56.99756474626331],[18.368064124062453,57.08075265569064],[18.58081232804634,57.21535207581132],[18.711106265509414,57.220162448086946],[18.75970911035486,57.35909053707231],[18.902627770025084,57.38867304014785],[18.998187914327296,57.451494068407186],[18.80809712323723,57.4481008677873],[18.763708582426684,57.51074127373047],[18.82425744585489,57.55861713257026],[18.778149190760075,57.617547056777056],[18.859205075136213,57.71820373432143],[19.022336792875976,57.734504950218366],[19.136996655336684,57.82751056995884],[19.20778320858419,57.92013940306111],[19.305992666949816,57.923572850608295]]]},"properties":{"valkrets":"Gotlands län"}},
{"type":"Feature","geometry":{"type":"Polygon","coordinates":[[[13.022848776556181,55.64012522171885],[13.018319252819472,55.64127104996442],[12.880697952796314,55.564155353629786],[12.904778624624674,55.49112266735782],[13.106683878712321,55.5242558717011],[13.14034250121725,55.59991880491167],[13.124985914993191,55.60770643847458],[13.022848776556181,55.64012522171885]]]},"properties":{"valkrets":"Malmö kommun"}},
{"type":"Feature","geometry":{"type":"MultiPolygon","coordinates":[[[[11.817528408392885,57.55568500561484],[11.878030316670019,57.55913455943707],[11.985955581168303,57.564841658129495],[11.987960341450828,57.56504185744799],[11.949220586700221,57.663544714193684],[12.056735504390621,57.67823670445674],[12.088665965875162,57.682167473415504],[12.078197012314629,57.76181709386768],[12.173710926564407,57.77595727056392],[12.241609978405599,57.79635860704425],[12.146050034761126,57.86476611449178],[12.013761783796022,57.860825301389546],[11.731615143849867,57.771095089808355],[11.704225482587402,57.66515854948254],[11.600006657347116,57.65205724758411],[11.71243892011507,57.49990560693032],[11.796012552822777,57.52434162289333],[11.817528408392885,57.55568500561484]]],[[[11.987958183937558,57.56502947650712],[11.987959017476236,57.56502955284427],[11.987960341450828,57.56504185744799],[11.987958183937558,57.56502947650712]]]]},"properties":{"valkrets":"Göteborgs kommun"}},
{"type":"Feature","geometry":{"type":"Polygon","coordinates":[[[18.200077544069796,59.24747266544313],[18.163934261959835,59.325327518330816],[18.09556509620563,59.3696905695756],[18.05874142625305,59.37549666427366],[17.96579541118469,59.35520224573686],[17.97267238508889,59.40044791488697],[17.89118380633992,59.42541585465364],[17.76069060095718,59.391767186246334],[17.9412540004373,59.31762940020019],[17.86349127788256,59.27454325664546],[18.109279953988704,59.22704553226033],[18.177187170681023,59.23242651177156],[18.200077544069796,59.24747266544313]]]},"properties":{"valkrets":"Stockholms kommun"}}
]}